{
  "type": "FeatureCollection",
  "features": [
    {
      "type": "Feature",
      "properties": {
        "norad_id": 37108,
        "name": "COSMOS 2251 DEB",
        "group": "cosmos-2251-debris",
        "lat": -50.22519099228939,
        "lon": -99.22128394080288,
        "alt_km": 769.2509970917017,
        "timestamp": "2025-12-23T11:34:48.557797+00:00",
        "meta_object_name": "COSMOS 2251 DEB",
        "meta_object_id": "1993-036BGE",
        "meta_epoch": "2025-12-23T03:50:51.787104",
        "meta_mean_motion": 14.41374403,
        "meta_eccentricity": 0.0090326,
        "meta_inclination": 74.0436,
        "meta_ra_of_asc_node": 61.2722,
        "meta_arg_of_pericenter": 135.3578,
        "meta_mean_anomaly": 225.4898,
        "meta_ephemeris_type": 0,
        "meta_classification_type": "U",
        "meta_norad_cat_id": 37108,
        "meta_element_set_no": 999,
        "meta_rev_at_epoch": 85657,
        "meta_bstar": 0.0010102,
        "meta_mean_motion_dot": 3.41e-05,
        "meta_mean_motion_ddot": 0,
        "tle_line1": "1 37108U 93036BGE 25357.16032161  .00003410  00000+0  10102-2 0  9995",
        "tle_line2": "2 37108  74.0436  61.2722 0090326 135.3578 225.4898 14.41374403856577"
      },
      "geometry": {
        "type": "Point",
        "coordinates": [
          -99.22128394080288,
          -50.22519099228939
        ]
      }
    },
    {
      "type": "Feature",
      "properties": {
        "norad_id": 37126,
        "name": "COSMOS 2251 DEB",
        "group": "cosmos-2251-debris",
        "lat": -71.7401737710196,
        "lon": -87.24517070328245,
        "alt_km": 627.0105217793271,
        "timestamp": "2025-12-23T11:34:48.557806+00:00",
        "meta_object_name": "COSMOS 2251 DEB",
        "meta_object_id": "1993-036BGY",
        "meta_epoch": "2025-12-22T16:23:31.818624",
        "meta_mean_motion": 14.73102933,
        "meta_eccentricity": 0.0122717,
        "meta_inclination": 73.9534,
        "meta_ra_of_asc_node": 335.0511,
        "meta_arg_of_pericenter": 211.0565,
        "meta_mean_anomaly": 148.3315,
        "meta_ephemeris_type": 0,
        "meta_classification_type": "U",
        "meta_norad_cat_id": 37126,
        "meta_element_set_no": 999,
        "meta_rev_at_epoch": 8245,
        "meta_bstar": 0.0001993635,
        "meta_mean_motion_dot": 1.408e-05,
        "meta_mean_motion_ddot": 0,
        "tle_line1": "1 37126U 93036BGY 25356.68300716  .00001408  00000+0  19936-3 0  9995",
        "tle_line2": "2 37126  73.9534 335.0511 0122717 211.0565 148.3315 14.73102933 82457"
      },
      "geometry": {
        "type": "Point",
        "coordinates": [
          -87.24517070328245,
          -71.7401737710196
        ]
      }
    },
    {
      "type": "Feature",
      "properties": {
        "norad_id": 37132,
        "name": "COSMOS 2251 DEB",
        "group": "cosmos-2251-debris",
        "lat": 22.084709084563823,
        "lon": 26.22591489296085,
        "alt_km": 659.8041768470675,
        "timestamp": "2025-12-23T11:34:48.557815+00:00",
        "meta_object_name": "COSMOS 2251 DEB",
        "meta_object_id": "1993-036BHE",
        "meta_epoch": "2025-12-21T08:30:46.700352",
        "meta_mean_motion": 14.77932958,
        "meta_eccentricity": 0.00403307,
        "meta_inclination": 74.0023,
        "meta_ra_of_asc_node": 217.0951,
        "meta_arg_of_pericenter": 11.0309,
        "meta_mean_anomaly": 349.1741,
        "meta_ephemeris_type": 0,
        "meta_classification_type": "U",
        "meta_norad_cat_id": 37132,
        "meta_element_set_no": 999,
        "meta_rev_at_epoch": 62543,
        "meta_bstar": 0.0006420237,
        "meta_mean_motion_dot": 4.657e-05,
        "meta_mean_motion_ddot": 0,
        "tle_line1": "1 37132U 93036BHE 25355.35470718  .00004657  00000+0  64202-3 0  9990",
        "tle_line2": "2 37132  74.0023 217.0951 0040330  11.0309 349.1741 14.77932958625437"
      },
      "geometry": {
        "type": "Point",
        "coordinates": [
          26.22591489296085,
          22.084709084563823
        ]
      }
    },
    {
      "type": "Feature",
      "properties": {
        "norad_id": 37270,
        "name": "COSMOS 2251 DEB",
        "group": "cosmos-2251-debris",
        "lat": 69.60801955795387,
        "lon": 9.169887494479932,
        "alt_km": 1114.6137985432915,
        "timestamp": "2025-12-23T11:34:48.557824+00:00",
        "meta_object_name": "COSMOS 2251 DEB",
        "meta_object_id": "1993-036BHJ",
        "meta_epoch": "2025-12-12T22:45:06.098400",
        "meta_mean_motion": 13.59808663,
        "meta_eccentricity": 0.03985351,
        "meta_inclination": 73.9378,
        "meta_ra_of_asc_node": 335.5481,
        "meta_arg_of_pericenter": 347.3958,
        "meta_mean_anomaly": 11.7404,
        "meta_ephemeris_type": 0,
        "meta_classification_type": "U",
        "meta_norad_cat_id": 37270,
        "meta_element_set_no": 999,
        "meta_rev_at_epoch": 77072,
        "meta_bstar": 0.0064936549,
        "meta_mean_motion_dot": 8.148e-05,
        "meta_mean_motion_ddot": 0,
        "tle_line1": "1 37270U 93036BHJ 25346.94798725  .00008148  00000+0  64937-2 0  9992",
        "tle_line2": "2 37270  73.9378 335.5481 0398535 347.3958  11.7404 13.59808663770728"
      },
      "geometry": {
        "type": "Point",
        "coordinates": [
          9.169887494479932,
          69.60801955795387
        ]
      }
    },
    {
      "type": "Feature",
      "properties": {
        "norad_id": 37278,
        "name": "COSMOS 2251 DEB",
        "group": "cosmos-2251-debris",
        "lat": 62.783159692249214,
        "lon": 4.366230748387898,
        "alt_km": 801.2458626708521,
        "timestamp": "2025-12-23T11:34:48.557833+00:00",
        "meta_object_name": "COSMOS 2251 DEB",
        "meta_object_id": "1993-036BHS",
        "meta_epoch": "2025-12-22T06:43:10.079328",
        "meta_mean_motion": 14.15136552,
        "meta_eccentricity": 0.02988964,
        "meta_inclination": 73.7862,
        "meta_ra_of_asc_node": 332.08,
        "meta_arg_of_pericenter": 152.8639,
        "meta_mean_anomaly": 274.4968,
        "meta_ephemeris_type": 0,
        "meta_classification_type": "U",
        "meta_norad_cat_id": 37278,
        "meta_element_set_no": 999,
        "meta_rev_at_epoch": 63964,
        "meta_bstar": 0.0007998951,
        "meta_mean_motion_dot": 2.366e-05,
        "meta_mean_motion_ddot": 0,
        "tle_line1": "1 37278U 93036BHS 25356.27997777  .00002366  00000+0  79990-3 0  9997",
        "tle_line2": "2 37278  73.7862 332.0800 0298896 152.8639 274.4968 14.15136552639645"
      },
      "geometry": {
        "type": "Point",
        "coordinates": [
          4.366230748387898,
          62.783159692249214
        ]
      }
    },
    {
      "type": "Feature",
      "properties": {
        "norad_id": 37280,
        "name": "COSMOS 2251 DEB",
        "group": "cosmos-2251-debris",
        "lat": -3.0218533039727498,
        "lon": -141.26980519235076,
        "alt_km": 741.6033825088134,
        "timestamp": "2025-12-23T11:34:48.557842+00:00",
        "meta_object_name": "COSMOS 2251 DEB",
        "meta_object_id": "1993-036BHU",
        "meta_epoch": "2025-12-22T09:21:04.007808",
        "meta_mean_motion": 14.19363695,
        "meta_eccentricity": 0.0130066,
        "meta_inclination": 74.0303,
        "meta_ra_of_asc_node": 39.8171,
        "meta_arg_of_pericenter": 166.444,
        "meta_mean_anomaly": 194.0254,
        "meta_ephemeris_type": 0,
        "meta_classification_type": "U",
        "meta_norad_cat_id": 37280,
        "meta_element_set_no": 999,
        "meta_rev_at_epoch": 57460,
        "meta_bstar": 0.0011560526,
        "meta_mean_motion_dot": 2.619e-05,
        "meta_mean_motion_ddot": 0,
        "tle_line1": "1 37280U 93036BHU 25356.38962972  .00002619  00000+0  11561-2 0  9991",
        "tle_line2": "2 37280  74.0303  39.8171 0130066 166.4440 194.0254 14.19363695574603"
      },
      "geometry": {
        "type": "Point",
        "coordinates": [
          -141.26980519235076,
          -3.0218533039727498
        ]
      }
    },
    {
      "type": "Feature",
      "properties": {
        "norad_id": 37284,
        "name": "COSMOS 2251 DEB",
        "group": "cosmos-2251-debris",
        "lat": -66.93144190224358,
        "lon": 95.40024020393948,
        "alt_km": 740.8497926986274,
        "timestamp": "2025-12-23T11:34:48.557851+00:00",
        "meta_object_name": "COSMOS 2251 DEB",
        "meta_object_id": "1993-036BHY",
        "meta_epoch": "2025-12-10T18:04:20.469216",
        "meta_mean_motion": 14.12686618,
        "meta_eccentricity": 0.01605026,
        "meta_inclination": 74.0123,
        "meta_ra_of_asc_node": 160.2425,
        "meta_arg_of_pericenter": 312.4867,
        "meta_mean_anomaly": 59.8736,
        "meta_ephemeris_type": 0,
        "meta_classification_type": "U",
        "meta_norad_cat_id": 37284,
        "meta_element_set_no": 999,
        "meta_rev_at_epoch": 59147,
        "meta_bstar": 0.001592138,
        "meta_mean_motion_dot": 3.31e-05,
        "meta_mean_motion_ddot": 0,
        "tle_line1": "1 37284U 93036BHY 25344.75301469  .00003310  00000+0  15921-2 0  9994",
        "tle_line2": "2 37284  74.0123 160.2425 0160502 312.4867  59.8736 14.12686618591475"
      },
      "geometry": {
        "type": "Point",
        "coordinates": [
          95.40024020393948,
          -66.93144190224358
        ]
      }
    }
  ]
}